H1 CPF 01  gfz 2021 04 02 12  5922 terrasarx 
H2 0702601  6201 31698    2021 04 02 12 59 42 2021 04 07 00 00 42   120 1 1  0 0 0
H9
10 0 59310  48942.000000  0   -2689096.474  -4799297.967  -4154059.177
10 0 59310  49062.000000  0   -2567046.573  -4191558.483  -4834021.153
10 0 59310  49182.000000  0   -2389125.903  -3513586.762  -5429360.984
10 0 59310  49302.000000  0   -2157352.735  -2778190.527  -5929753.857
10 0 59310  49422.000000  0   -1874901.909  -1999099.453  -6326545.236
10 0 59310  49542.000000  0   -1546059.858  -1190705.933  -6612889.428
10 0 59310  49662.000000  0   -1176158.456   -367799.898  -6783855.901
10 0 59310  49782.000000  0    -771489.157    454697.720  -6836504.314
10 0 59310  49902.000000  0    -339197.243   1261998.802  -6769929.386
10 0 59310  50022.000000  0     112841.275   2039706.996  -6585274.386
10 0 59310  50142.000000  0     576158.248   2774067.999  -6285715.036
10 0 59310  50262.000000  0    1041848.775   3452209.879  -5876412.182
10 0 59310  50382.000000  0    1500738.199   4062367.587  -5364430.791
10 0 59310  50502.000000  0    1943558.882   4594088.593  -4758629.404
10 0 59310  50622.000000  0    2361134.861   5038418.036  -4069518.485
10 0 59310  50742.000000  0    2744569.872   5388057.696  -3309087.138
10 0 59310  50862.000000  0    3085435.366   5637495.498  -2490602.397
10 0 59310  50982.000000  0    3375955.030   5783102.639  -1628381.754
10 0 59310  51102.000000  0    3609180.353   5823194.609   -737542.701
10 0 59310  51222.000000  0    3779152.203   5758053.892    166266.369
10 0 59310  51342.000000  0    3881044.335   5589913.015   1067147.598
10 0 59310  51462.000000  0    3911285.482   5322897.564   1949240.985
10 0 59310  51582.000000  0    3867656.704   4962932.421   2797011.190
10 0 59310  51702.000000  0    3749361.043   4517612.129   3595531.241
10 0 59310  51822.000000  0    3557062.544   3996035.566   4330750.422
10 0 59310  51942.000000  0    3292897.839   3408616.269   4989745.130
10 0 59310  52062.000000  0    2960453.013   2766868.308   5560948.766
10 0 59310  52182.000000  0    2564712.819   2083173.267   6034350.022
10 0 59310  52302.000000  0    2111984.497   1370537.093   6401663.307
10 0 59310  52422.000000  0    1609793.829    642338.780   6656468.050
10 0 59310  52542.000000  0    1066757.079    -87921.419   6794313.954
10 0 59310  52662.000000  0     492431.990   -806870.955   6812794.876
10 0 59310  52782.000000  0    -102850.810  -1501510.310   6711588.883
10 0 59310  52902.000000  0    -708173.778  -2159447.762   6492463.012
10 0 59310  53022.000000  0   -1312232.286  -2769120.579   6159243.175
10 0 59310  53142.000000  0   -1903543.214  -3319998.265   5717750.482
10 0 59310  53262.000000  0   -2470661.820  -3802766.787   5175707.155
10 0 59310  53382.000000  0   -3002405.580  -4209491.296   4542609.266
10 0 59310  53502.000000  0   -3488078.831  -4533752.441   3829565.094
10 0 59310  53622.000000  0   -3917691.083  -4770752.932   3049102.444
10 0 59310  53742.000000  0   -4282164.718  -4917392.887   2214949.320
10 0 59310  53862.000000  0   -4573529.320  -4972312.251   1341790.518
10 0 59310  53982.000000  0   -4785096.682  -4935897.418    445003.730
10 0 59310  54102.000000  0   -4911611.765  -4810252.352   -459618.473
10 0 59310  54222.000000  0   -4949375.978  -4599134.854  -1356155.721
10 0 59310  54342.000000  0   -4896338.495  -4307858.816  -2228849.869
10 0 59310  54462.000000  0   -4752153.024  -3943164.694  -3062389.850
10 0 59310  54582.000000  0   -4518199.713  -3513063.287  -3842184.285
10 0 59310  54702.000000  0   -4197572.924  -3026657.813  -4554617.529
10 0 59310  54822.000000  0   -3795035.337  -2493948.034  -5187284.751
10 0 59310  54942.000000  0   -3316939.901  -1925621.703  -5729201.390
10 0 59310  55062.000000  0   -2771122.736  -1332838.464  -6170984.649
10 0 59310  55182.000000  0   -2166769.175   -727010.373  -6505005.447
10 0 59310  55302.000000  0   -1514254.998   -119583.780  -6725508.542
10 0 59310  55422.000000  0    -824967.916    478172.804  -6828699.823
10 0 59310  55542.000000  0    -111112.425   1055372.089  -6812804.449
10 0 59310  55662.000000  0     614501.052   1601701.199  -6678093.718
10 0 59310  55782.000000  0    1338679.660   2107600.955  -6426883.084
10 0 59310  55902.000000  0    2048083.610   2564430.951  -6063497.061
10 0 59310  56022.000000  0    2729467.556   2964616.507  -5594202.622
10 0 59310  56142.000000  0    3369924.841   3301774.669  -5027110.394
10 0 59310  56262.000000  0    3957131.315   3570819.124  -4372046.949
10 0 59310  56382.000000  0    4479585.682   3768041.394  -3640395.361
10 0 59310  56502.000000  0    4926840.394   3891165.402  -2844905.629
10 0 59310  56622.000000  0    5289716.314   3939374.046  -1999477.497
10 0 59310  56742.000000  0    5560497.689   3913307.460  -1118919.516
10 0 59310  56862.000000  0    5733101.558   3815031.091   -218687.481
10 0 59310  56982.000000  0    5803217.134   3647975.002    685391.389
10 0 59310  57102.000000  0    5768411.568   3416844.719   1577404.270
10 0 59310  57222.000000  0    5628197.425   3127505.458   2441641.647
10 0 59310  57342.000000  0    5384061.002   2786843.979   3262882.659
10 0 59310  57462.000000  0    5039450.203   2402610.269   4026671.329
10 0 59310  57582.000000  0    4599721.188   1983243.083   4719575.715
10 0 59310  57702.000000  0    4072049.765   1537685.595   5329424.026
10 0 59310  57822.000000  0    3465307.276   1075195.106   5845519.798
10 0 59310  57942.000000  0    2789901.174    605149.647   6258825.086
10 0 59310  58062.000000  0    2057590.034    136858.394   6562110.767
10 0 59310  58182.000000  0    1281275.892   -320620.939   6750077.379
10 0 59310  58302.000000  0     474774.283   -758656.601   6819444.020
10 0 59310  58422.000000  0    -347433.357  -1169205.135   6769001.209
10 0 59310  58542.000000  0   -1170459.384  -1544958.577   6599630.003
10 0 59310  58662.000000  0   -1979278.441  -1879474.618   6314286.228
10 0 59310  58782.000000  0   -2758999.342  -2167286.289   5917951.830
10 0 59310  58902.000000  0   -3495139.410  -2403992.274   5417556.372
10 0 59310  59022.000000  0   -4173898.805  -2586326.566   4821862.360
10 0 59310  59142.000000  0   -4782424.430  -2712203.970   4141316.026
10 0 59310  59262.000000  0   -5309059.613  -2780740.368   3387867.543
10 0 59310  59382.000000  0   -5743574.575  -2792247.925   2574763.814
10 0 59310  59502.000000  0   -6077373.761  -2748206.084   1716315.779
10 0 59310  59622.000000  0   -6303674.070  -2651208.639    827641.998
10 0 59310  59742.000000  0   -6417646.800  -2504885.341    -75605.162
10 0 59310  59862.000000  0   -6416522.052  -2313802.334   -977523.135
10 0 59310  59982.000000  0   -6299651.127  -2083342.879  -1862249.407
10 0 59310  60102.000000  0   -6068524.442  -1819572.220  -2714248.629
10 0 59310  60222.000000  0   -5726747.249  -1529090.160  -3518590.785
10 0 59310  60342.000000  0   -5279973.793  -1218875.278  -4261215.309
10 0 59310  60462.000000  0   -4735802.410   -896124.820  -4929175.809
10 0 59310  60582.000000  0   -4103634.395   -568093.672  -5510861.444
10 0 59310  60702.000000  0   -3394500.080   -241936.851  -5996190.465
10 0 59310  60822.000000  0   -2620857.972     75441.360  -6376773.726
10 0 59310  60942.000000  0   -1796371.556    377528.079  -6646047.792
10 0 59310  61062.000000  0    -935666.890    658329.614  -6799377.117
10 0 59310  61182.000000  0     -54076.461    912486.063  -6834124.675
10 0 59310  61302.000000  0     832627.131   1135370.239  -6749691.414
10 0 59310  61422.000000  0    1708505.927   1323169.001  -6547528.033
10 0 59310  61542.000000  0    2557737.826   1472948.073  -6231113.425
10 0 59310  61662.000000  0    3364897.799   1582697.590  -5805900.693
10 0 59310  61782.000000  0    4115234.456   1651357.661  -5279231.531
10 0 59310  61902.000000  0    4794939.763   1678824.557  -4660221.616
10 0 59310  62022.000000  0    5391408.209   1665937.074  -3959613.861
10 0 59310  62142.000000  0    5893477.728   1614442.368  -3189601.096
10 0 59310  62262.000000  0    6291648.400   1526941.969  -2363621.721
10 0 59310  62382.000000  0    6578274.818   1406819.345  -1496129.085
10 0 59310  62502.000000  0    6747724.634   1258149.700   -602337.652
10 0 59310  62622.000000  0    6796498.998   1085593.536    302048.318
10 0 59310  62742.000000  0    6723309.912    894277.874   1201117.237
10 0 59310  62862.000000  0    6529116.256    689667.276   2079037.525
10 0 59310  62982.000000  0    6217113.229    477427.003   2920346.703
10 0 59310  63102.000000  0    5792675.760    263283.158   3710231.282
10 0 59310  63222.000000  0    5263258.427     52882.845   4434793.894
10 0 59310  63342.000000  0    4638255.559   -148340.365   5081299.676
10 0 59310  63462.000000  0    3928824.678   -335295.571   5638401.493
10 0 59310  63582.000000  0    3147676.313   -503352.885   6096335.330
10 0 59310  63702.000000  0    2308838.610   -648448.242   6447086.079
10 0 59310  63822.000000  0    1427400.344   -767174.207   6684522.055
10 0 59310  63942.000000  0     519235.569   -856854.669   6804497.505
10 0 59310  64062.000000  0    -399284.460   -915601.646   6804919.485
10 0 59310  64182.000000  0   -1311585.762   -942353.837   6685780.977
10 0 59310  64302.000000  0   -2201189.257   -936895.825   6449160.429
10 0 59310  64422.000000  0   -3052006.550   -899857.479   6099187.640
10 0 59310  64542.000000  0   -3848631.212   -832693.835   5641977.963
10 0 59310  64662.000000  0   -4576621.972   -737646.593   5085532.398
10 0 59310  64782.000000  0   -5222771.319   -617687.213   4439603.378
10 0 59310  64902.000000  0   -5775353.220   -476442.392   3715527.864
10 0 59310  65022.000000  0   -6224344.501   -318103.516   2926030.765
10 0 59310  65142.000000  0   -6561616.619   -147321.930   2085002.831
10 0 59310  65262.000000  0   -6781093.529     30908.068   1207253.559
10 0 59310  65382.000000  0   -6878868.966    211374.571    308244.090
99
